STARLINK-36480          
1 67336U 26003C   26028.91668981 -.02072868  00000+0 -22400-1 0  9995
2 67336  42.9998  94.3907 0001136 268.3048 322.4315 15.66129502  4283
STARLINK-36410          
1 67337U 26003D   26028.91668981 -.02071614  00000+0 -22386-1 0  9997
2 67337  42.9999  94.3855 0001216 268.9601 323.6974 15.66126564  4286
STARLINK-36413          
1 67338U 26003E   26028.91668981 -.02073260  00000+0 -22404-1 0  9998
2 67338  43.0001  94.3805 0001183 267.7414 326.8303 15.66129309  4281
STARLINK-36451          
1 67339U 26003F   26028.91668981 -.02073158  00000+0 -22403-1 0  9994
2 67339  42.9999  94.3756 0001133 267.8947 328.5930 15.66129562  4284
STARLINK-36339          
1 67340U 26003G   26028.91668981 -.02083116  00000+0 -22522-1 0  9993
2 67340  43.0002  94.3712 0001196 268.1724 330.2350 15.66133912  4281
STARLINK-36453          
1 67341U 26003H   26028.91668981 -.02070965  00000+0 -22378-1 0  9991
2 67341  42.9998  94.3657 0001156 268.5558 331.7678 15.66127239  4281
STARLINK-36432          
1 67342U 26003J   26028.91668981 -.02080303  00000+0 -22489-1 0  9992
2 67342  42.9999  94.3607 0001092 267.2941 334.9475 15.66133019  4271
STARLINK-36458          
1 67343U 26003K   26028.91668981 -.02078353  00000+0 -22466-1 0  9990
2 67343  42.9999  94.3565 0001189 268.5233 335.6366 15.66130317  4286
STARLINK-36422          
1 67344U 26003L   26028.91668981 -.02076532  00000+0 -22446-1 0  9996
2 67344  42.9999  94.3506 0001098 266.8926 339.1855 15.66128710  4276
STARLINK-35676          
1 67345U 26003M   26028.91668981 -.02077940  00000+0 -22461-1 0  9998
2 67345  42.9998  94.3463 0001204 267.7561 340.2376 15.66130464  4272
STARLINK-36472          
1 67346U 26003N   26028.91668981 -.02079104  00000+0 -22474-1 0  9997
2 67346  43.0003  94.3412 0001210 267.9090 342.0002 15.66132096  4271
STARLINK-36420          
1 67347U 26003P   26028.91668981 -.02077148  00000+0 -22451-1 0  9999
2 67347  43.0000  94.3316 0001169 267.6940 346.0489 15.66131070  4281
