CCSDS_OMM_VERS = 2.0
CREATION_DATE  = 
ORIGINATOR     = 

OBJECT_NAME    = STARLINK-36480
OBJECT_ID      = 2026-003C
CENTER_NAME    = EARTH
REF_FRAME      = TEME
TIME_SYSTEM    = UTC
MEAN_ELEMENT_THEORY = SGP/SGP4

EPOCH          = 2026-01-28T22:00:01.999584
MEAN_MOTION    = 15.66129502
ECCENTRICITY   = .00011366
INCLINATION    = 42.9998
RA_OF_ASC_NODE = 94.3907
ARG_OF_PERICENTER = 268.3048
MEAN_ANOMALY   = 322.4315

EPHEMERIS_TYPE = 0
CLASSIFICATION_TYPE = U
NORAD_CAT_ID   = 67336
ELEMENT_SET_NO = 999
REV_AT_EPOCH   = 428
BSTAR          = -.22399508E-1
MEAN_MOTION_DOT = -.2072868E-1
MEAN_MOTION_DDOT = 0

CCSDS_OMM_VERS = 2.0
CREATION_DATE  = 
ORIGINATOR     = 

OBJECT_NAME    = STARLINK-36410
OBJECT_ID      = 2026-003D
CENTER_NAME    = EARTH
REF_FRAME      = TEME
TIME_SYSTEM    = UTC
MEAN_ELEMENT_THEORY = SGP/SGP4

EPOCH          = 2026-01-28T22:00:01.999584
MEAN_MOTION    = 15.66126564
ECCENTRICITY   = .00012165
INCLINATION    = 42.9999
RA_OF_ASC_NODE = 94.3855
ARG_OF_PERICENTER = 268.9601
MEAN_ANOMALY   = 323.6974

EPHEMERIS_TYPE = 0
CLASSIFICATION_TYPE = U
NORAD_CAT_ID   = 67337
ELEMENT_SET_NO = 999
REV_AT_EPOCH   = 428
BSTAR          = -.22385866E-1
MEAN_MOTION_DOT = -.2071614E-1
MEAN_MOTION_DDOT = 0

CCSDS_OMM_VERS = 2.0
CREATION_DATE  = 
ORIGINATOR     = 

OBJECT_NAME    = STARLINK-36413
OBJECT_ID      = 2026-003E
CENTER_NAME    = EARTH
REF_FRAME      = TEME
TIME_SYSTEM    = UTC
MEAN_ELEMENT_THEORY = SGP/SGP4

EPOCH          = 2026-01-28T22:00:01.999584
MEAN_MOTION    = 15.66129309
ECCENTRICITY   = .00011839
INCLINATION    = 43.0001
RA_OF_ASC_NODE = 94.3805
ARG_OF_PERICENTER = 267.7414
MEAN_ANOMALY   = 326.8303

EPHEMERIS_TYPE = 0
CLASSIFICATION_TYPE = U
NORAD_CAT_ID   = 67338
ELEMENT_SET_NO = 999
REV_AT_EPOCH   = 428
BSTAR          = -.22404061E-1
MEAN_MOTION_DOT = -.207326E-1
MEAN_MOTION_DDOT = 0

CCSDS_OMM_VERS = 2.0
CREATION_DATE  = 
ORIGINATOR     = 

OBJECT_NAME    = STARLINK-36451
OBJECT_ID      = 2026-003F
CENTER_NAME    = EARTH
REF_FRAME      = TEME
TIME_SYSTEM    = UTC
MEAN_ELEMENT_THEORY = SGP/SGP4

EPOCH          = 2026-01-28T22:00:01.999584
MEAN_MOTION    = 15.66129562
ECCENTRICITY   = .00011337
INCLINATION    = 42.9999
RA_OF_ASC_NODE = 94.3756
ARG_OF_PERICENTER = 267.8947
MEAN_ANOMALY   = 328.5930

EPHEMERIS_TYPE = 0
CLASSIFICATION_TYPE = U
NORAD_CAT_ID   = 67339
ELEMENT_SET_NO = 999
REV_AT_EPOCH   = 428
BSTAR          = -.22403076E-1
MEAN_MOTION_DOT = -.2073158E-1
MEAN_MOTION_DDOT = 0

CCSDS_OMM_VERS = 2.0
CREATION_DATE  = 
ORIGINATOR     = 

OBJECT_NAME    = STARLINK-36339
OBJECT_ID      = 2026-003G
CENTER_NAME    = EARTH
REF_FRAME      = TEME
TIME_SYSTEM    = UTC
MEAN_ELEMENT_THEORY = SGP/SGP4

EPOCH          = 2026-01-28T22:00:01.999584
MEAN_MOTION    = 15.66133912
ECCENTRICITY   = .00011969
INCLINATION    = 43.0002
RA_OF_ASC_NODE = 94.3712
ARG_OF_PERICENTER = 268.1724
MEAN_ANOMALY   = 330.2350

EPHEMERIS_TYPE = 0
CLASSIFICATION_TYPE = U
NORAD_CAT_ID   = 67340
ELEMENT_SET_NO = 999
REV_AT_EPOCH   = 428
BSTAR          = -.22521826E-1
MEAN_MOTION_DOT = -.2083116E-1
MEAN_MOTION_DDOT = 0

CCSDS_OMM_VERS = 2.0
CREATION_DATE  = 
ORIGINATOR     = 

OBJECT_NAME    = STARLINK-36453
OBJECT_ID      = 2026-003H
CENTER_NAME    = EARTH
REF_FRAME      = TEME
TIME_SYSTEM    = UTC
MEAN_ELEMENT_THEORY = SGP/SGP4

EPOCH          = 2026-01-28T22:00:01.999584
MEAN_MOTION    = 15.66127239
ECCENTRICITY   = .0001156
INCLINATION    = 42.9998
RA_OF_ASC_NODE = 94.3657
ARG_OF_PERICENTER = 268.5558
MEAN_ANOMALY   = 331.7678

EPHEMERIS_TYPE = 0
CLASSIFICATION_TYPE = U
NORAD_CAT_ID   = 67341
ELEMENT_SET_NO = 999
REV_AT_EPOCH   = 428
BSTAR          = -.22377815E-1
MEAN_MOTION_DOT = -.2070965E-1
MEAN_MOTION_DDOT = 0

CCSDS_OMM_VERS = 2.0
CREATION_DATE  = 
ORIGINATOR     = 

OBJECT_NAME    = STARLINK-36432
OBJECT_ID      = 2026-003J
CENTER_NAME    = EARTH
REF_FRAME      = TEME
TIME_SYSTEM    = UTC
MEAN_ELEMENT_THEORY = SGP/SGP4

EPOCH          = 2026-01-28T22:00:01.999584
MEAN_MOTION    = 15.66133019
ECCENTRICITY   = .00010929
INCLINATION    = 42.9999
RA_OF_ASC_NODE = 94.3607
ARG_OF_PERICENTER = 267.2941
MEAN_ANOMALY   = 334.9475

EPHEMERIS_TYPE = 0
CLASSIFICATION_TYPE = U
NORAD_CAT_ID   = 67342
ELEMENT_SET_NO = 999
REV_AT_EPOCH   = 427
BSTAR          = -.22488822E-1
MEAN_MOTION_DOT = -.2080303E-1
MEAN_MOTION_DDOT = 0

CCSDS_OMM_VERS = 2.0
CREATION_DATE  = 
ORIGINATOR     = 

OBJECT_NAME    = STARLINK-36458
OBJECT_ID      = 2026-003K
CENTER_NAME    = EARTH
REF_FRAME      = TEME
TIME_SYSTEM    = UTC
MEAN_ELEMENT_THEORY = SGP/SGP4

EPOCH          = 2026-01-28T22:00:01.999584
MEAN_MOTION    = 15.66130317
ECCENTRICITY   = .00011899
INCLINATION    = 42.9999
RA_OF_ASC_NODE = 94.3565
ARG_OF_PERICENTER = 268.5233
MEAN_ANOMALY   = 335.6366

EPHEMERIS_TYPE = 0
CLASSIFICATION_TYPE = U
NORAD_CAT_ID   = 67343
ELEMENT_SET_NO = 999
REV_AT_EPOCH   = 428
BSTAR          = -.22466159E-1
MEAN_MOTION_DOT = -.2078353E-1
MEAN_MOTION_DDOT = 0

CCSDS_OMM_VERS = 2.0
CREATION_DATE  = 
ORIGINATOR     = 

OBJECT_NAME    = STARLINK-36422
OBJECT_ID      = 2026-003L
CENTER_NAME    = EARTH
REF_FRAME      = TEME
TIME_SYSTEM    = UTC
MEAN_ELEMENT_THEORY = SGP/SGP4

EPOCH          = 2026-01-28T22:00:01.999584
MEAN_MOTION    = 15.66128710
ECCENTRICITY   = .00010985
INCLINATION    = 42.9999
RA_OF_ASC_NODE = 94.3506
ARG_OF_PERICENTER = 266.8926
MEAN_ANOMALY   = 339.1855

EPHEMERIS_TYPE = 0
CLASSIFICATION_TYPE = U
NORAD_CAT_ID   = 67344
ELEMENT_SET_NO = 999
REV_AT_EPOCH   = 427
BSTAR          = -.22445994E-1
MEAN_MOTION_DOT = -.2076532E-1
MEAN_MOTION_DDOT = 0

CCSDS_OMM_VERS = 2.0
CREATION_DATE  = 
ORIGINATOR     = 

OBJECT_NAME    = STARLINK-35676
OBJECT_ID      = 2026-003M
CENTER_NAME    = EARTH
REF_FRAME      = TEME
TIME_SYSTEM    = UTC
MEAN_ELEMENT_THEORY = SGP/SGP4

EPOCH          = 2026-01-28T22:00:01.999584
MEAN_MOTION    = 15.66130464
ECCENTRICITY   = .00012045
INCLINATION    = 42.9998
RA_OF_ASC_NODE = 94.3463
ARG_OF_PERICENTER = 267.7561
MEAN_ANOMALY   = 340.2376

EPHEMERIS_TYPE = 0
CLASSIFICATION_TYPE = U
NORAD_CAT_ID   = 67345
ELEMENT_SET_NO = 999
REV_AT_EPOCH   = 427
BSTAR          = -.22460753E-1
MEAN_MOTION_DOT = -.207794E-1
MEAN_MOTION_DDOT = 0

CCSDS_OMM_VERS = 2.0
CREATION_DATE  = 
ORIGINATOR     = 

OBJECT_NAME    = STARLINK-36472
OBJECT_ID      = 2026-003N
CENTER_NAME    = EARTH
REF_FRAME      = TEME
TIME_SYSTEM    = UTC
MEAN_ELEMENT_THEORY = SGP/SGP4

EPOCH          = 2026-01-28T22:00:01.999584
MEAN_MOTION    = 15.66132096
ECCENTRICITY   = .00012102
INCLINATION    = 43.0003
RA_OF_ASC_NODE = 94.3412
ARG_OF_PERICENTER = 267.9090
MEAN_ANOMALY   = 342.0002

EPHEMERIS_TYPE = 0
CLASSIFICATION_TYPE = U
NORAD_CAT_ID   = 67346
ELEMENT_SET_NO = 999
REV_AT_EPOCH   = 427
BSTAR          = -.22473631E-1
MEAN_MOTION_DOT = -.2079104E-1
MEAN_MOTION_DDOT = 0

CCSDS_OMM_VERS = 2.0
CREATION_DATE  = 
ORIGINATOR     = 

OBJECT_NAME    = STARLINK-36420
OBJECT_ID      = 2026-003P
CENTER_NAME    = EARTH
REF_FRAME      = TEME
TIME_SYSTEM    = UTC
MEAN_ELEMENT_THEORY = SGP/SGP4

EPOCH          = 2026-01-28T22:00:01.999584
MEAN_MOTION    = 15.66131070
ECCENTRICITY   = .0001169
INCLINATION    = 43.0000
RA_OF_ASC_NODE = 94.3316
ARG_OF_PERICENTER = 267.6940
MEAN_ANOMALY   = 346.0489

EPHEMERIS_TYPE = 0
CLASSIFICATION_TYPE = U
NORAD_CAT_ID   = 67347
ELEMENT_SET_NO = 999
REV_AT_EPOCH   = 428
BSTAR          = -.22450756E-1
MEAN_MOTION_DOT = -.2077148E-1
MEAN_MOTION_DDOT = 0

